SKYKRAFT-1C             
1 55061U 23001BE  26068.70960345  .00004538  00000+0  18809-3 0  9997
2 55061  97.3326 124.5476 0011974 132.0782 228.1477 15.24327539176324
STARLINK-31156          
1 58743U 24005R   26068.45950290  .00000176  00000+0  16221-4 0  9993
2 58743  42.9990 220.6172 0001002 291.5066  68.5679 15.26738284120464
